#dP2021  4 18 18  0  0.00000000      96 __u+U ITR00 EXT  IAC
## 2154  64800.00000000   900.00000000 59322 0.7500000000000
+  116   C06C07C08C09C10C11C12C13C14C16C19C20C21C22C23C24C25
+        C26C27C28C29C30C32C33C34C35C36C37C38C39C40C41C42C43
+        C44C45C46E01E02E03E04E05E07E08E09E11E12E13E14E15E18
+        E19E21E24E25E26E27E30E31E33E36G01G02G03G04G05G06G07
+        G08G09G10G12G13G14G15G16G17G18G19G20G21G22G23G24G25
+        G26G27G28G29G30G31G32J01J02J03R01R02R03R04R05R07R08
+        R09R11R12R13R14R15R16R17R18R19R20R21R22R24  0  0  0
++        10 11 10  7 10 10  7  9  9  9  8  8  8  8  9  9  9
++         9 10 11  9  7  9  9  8  8  8 10  9  9  9  9  8 10
++         8  9  9  8  9  9  8  7  8  8  9  7  9  7  8  7  9
++         8  9  8  7  9  6  8  7  9  7  6  6  7  7  7  6  6
++         9  6  6  7  8  7  8  8  7  8  6  8  9  8  7  6  7
++         7  8  6  6  8  8  7 11 11 11  9  9  8  8  9  8  8
++        10  9  8  6  8  9  8  8  7  9  9 10  9  7  0  0  0
%c M  cc GPS ccc cccc cccc cccc cccc ccccc ccccc ccccc ccccc
%c cc cc ccc ccc cccc cccc cccc cccc ccccc ccccc ccccc ccccc
%f  0.0000000  0.000000000  0.00000000000  0.000000000000000
%f  0.0000000  0.000000000  0.00000000000  0.000000000000000
%i    0    0    0    0      0      0      0      0         0
%i    0    0    0    0      0      0      0      0         0
/* IAC                                ULTRA-RAPID PREDICTION
/* S/V CLOCKS ARE ALIGNED TO GNSS TIME                      
/* G:C1WC2W R:C1PC2P E:C1XC5X C:C2IC6I J:C1CC2S             
/* PCV:IGS14_2148 OL/AL:FES2004  NONE     YN ORB:CoN CLK:CoN
*  2021 04 19 13 15  0.00000000
PC06 -24238.577848  33776.108413  -7971.682120    294.682520
PC07  -9674.802044  31658.771106 -25578.173549   -136.391601
PC08 -16362.932624  17330.750510  34820.285312   -891.613190
PC09 -12673.281075  33827.620999 -21800.042992    584.463648
PC10   2685.353219  38946.504594 -15147.863575    -54.302918
PC11  22431.650915  -4644.789094  16019.899221   -800.319855
PC12  10691.844474  11044.652870  23322.088381    920.863126
PC13  -1100.389722  22841.308165  35539.776027    227.836176
PC14  16441.855138   4199.504393 -22112.135730    509.093564
PC16 -21008.546077  34680.728255 -11826.835491   -791.847679
PC19 -14650.914990   7094.877113  22695.910094    804.379947
PC20 -15767.535799 -13234.086555  18878.302358   -956.129785
PC21   7424.459756  26650.728712  -3528.333457   -951.318112
PC22  -5042.699961  23918.855266  13441.409409   -965.779471
PC23   8666.463130 -13989.666061  22538.063970   -890.499058
PC24  25163.733897  11653.541642  -3242.189801   -819.207226
PC25  23811.163572  -2746.173009  14301.269964   -930.055372
PC26  12857.381081  17524.449727 -17529.797463    918.825062
PC27  -1865.107835 -17683.121095 -21521.426277    517.993488
PC28  15532.840535 -21179.961640  -9429.610331    -84.391531
PC29 -23256.124996  13117.294524  -8135.912995    380.953874
PC30 -17907.314067  -3635.928636 -21104.795236    461.480917
PC32  -7668.773250 -26601.871151   3581.295191   -945.471007
PC33  14632.794577  -7141.821358 -22653.116422   -941.749189
PC34  18337.719724   3085.848610  20788.665874   -692.358235
PC35 -15043.604364  21691.379302   9105.012834   -319.778555
PC36 -24038.203598   1921.534289 -14022.914091   -730.555469
PC37 -11521.783666 -17875.316786  18073.647352   -900.146204
PC38 -12391.653952  21200.361825  34291.745498    143.300971
PC39 -16232.955944  36168.503581 -14545.983575     30.457147
PC40  -1328.292004  37817.393307 -18425.232768    152.698188
PC41   5118.847100 -23803.828074 -13579.269680   -946.828673
PC42  15637.829122  13934.249938 -18382.716790   -922.662769
PC43  23370.612974 -12597.669397   8542.013180   -692.564526
PC44   2273.801964  17843.144322  21335.865385    145.624463
PC45  -8471.987570  13948.489450 -22634.022793    417.983627
PC46 -25507.957604 -11028.932944   2334.601800    309.115807
PE01  14499.405600  -8498.617363  24362.664223  -1090.256549
PE02 -14397.385350   8629.817778 -24384.978943    213.287689
PE03 -16593.155986  19901.519481  14301.221465   -421.836611
PE04   6139.347560 -28752.955014   3447.776589   -753.400564
PE05 -17452.557915   -761.165310  23902.402979   -287.587557
PE07   8124.193920  20756.108919 -19460.981416   -527.541687
PE08  -5807.669498  28774.587843  -3742.631475   6015.228785
PE09  -8227.670199 -20568.350511  19648.525032   5695.699057
PE11 -14805.874767 -11741.564371 -22796.216790   6077.835104
PE12   7782.707715 -17214.503725 -22778.973492   5251.980758
PE13  14362.400029  11847.748701  23012.572987    415.239847
PE14 -21600.732341  12723.852537 -14199.323002  -1402.322962
PE15  -7741.474546  17180.799988  22836.746976    818.654249
PE18  15131.158756 -24642.500523   -673.453227  -1534.271952
PE19  17163.297057 -18006.221562 -16031.763026    256.145319
PE21  23298.743705   9472.387768  15605.520965   -660.206163
PE24 -18365.595833 -22971.491900   3215.462151   -855.486742
PE25 -23323.245512  -9635.477072 -15466.429344   -531.412518
PE26  28223.413239   -783.472675   8884.629480   1906.654593
PE27  18913.069178  22638.458373  -2508.910154    -14.529479
PE30   2471.345958  22104.005150 -19551.756167   3012.473124
PE31  -3432.501940 -22408.044703  19034.108743   -480.317033
PE33  25243.637223 -12387.342542  -9217.226282   -467.707345
PE36 -27995.382715    467.113091  -9622.231325   -195.808074
PG01 -10626.288476 -13471.642599 -20623.880869    712.122040
PG02 -14690.124696  14013.491652  17804.745450   -597.047429
PG03 -12610.772388 -23337.650216  -2318.124934   -141.138147
PG04  -3041.727474 -19508.673553  17747.481529   -192.583793
PG05    325.025365  20905.360129  16122.141251    -39.525839
PG06 -24361.778762   6444.544566   8553.151984      8.453192
PG07 -22704.940756  -8051.104411  12065.244833    126.715703
PG08   3471.220796 -23665.711084 -11215.186019    -18.081485
PG09 -11948.244969 -10045.655778  21428.781701   -340.000898
PG10  17695.563829   2947.075007 -19557.749384   -105.147943
PG12   9005.983091  24594.584657  -5122.192578    -29.878135
PG13 -12576.823928  22890.359428  -4555.770071    121.818865
PG14 -17836.537984  -4065.375052 -19276.471205     94.836148
PG15   -161.708240  23900.155645 -11557.006700   -155.110857
PG16   4648.319935 -18321.506079  18216.583960   -312.115984
PG17 -18163.075703   7095.510760 -17606.164080    428.930061
PG18  24638.568920   5496.111943   8349.636124    351.582158
PG19 -19234.154855  13936.939883 -12057.974863    -10.899972
PG20  16789.662555  20746.017623    718.267077    523.017532
PG21  -2347.302963 -14790.904615 -21228.192029    112.140355
PG22  -7297.341412 -23008.909080 -11090.047768   -634.289469
PG23  19247.851406  13330.696969 -12602.487620    112.593547
PG24   5257.206822  15288.653365 -21354.882563     19.161213
PG25  17346.588849  19099.588973   6613.874810    121.541643
PG26  11369.681068 -10854.977126  21334.748784     74.262849
PG27  12112.620843 -23405.025268   -539.686745   -115.500496
PG28 -16141.068714  -1124.893319 -20485.358624    584.369750
PG29  10826.324448  10182.676688  21961.578647   -332.727072
PG30 -26668.676277    692.498341   -723.244488   -414.962992
PG31  23223.237851  -7757.523465  10770.708130   -112.496131
PG32  18224.802403  -9457.470023 -16645.139845     22.067647
PJ01 -27880.812843  25354.854545  23871.322813   -367.577943
PJ02 -22651.759501  17993.630893 -26229.514593      5.882569
PJ03 -29065.675277  30624.385581   4801.367292     -3.688841
PR01   2812.190252 -24470.215914  -6658.227594     78.132809
PR02  -6351.516199 -20432.886554  13887.514952    475.416043
PR03 -10840.299805  -3862.953275  22807.867686     34.490351
PR04  -8971.469774  14612.657164  18919.025399     83.094131
PR05  -2307.143965  25024.446700   4452.534835     70.244416
PR07  10841.457137   3253.302654 -22819.872353    -42.535772
PR08   8996.859976 -14695.677278 -18741.039062    -58.629060
PR09  17980.938901  15442.093251  -9322.440837    -11.286363
PR11  14456.280449  -3133.458259  20785.552577      0.262506
PR12  -2579.383212 -13358.323732  21594.068985    222.125614
PR13 -17720.008947 -15416.010448   9931.035177    -53.667296
PR14 -22630.942688  -8466.280162  -8189.428228     63.325241
PR15 -14212.793716   3301.555559 -20906.620308    104.278513
PR16   3930.148236  13845.832940 -21118.554610    -13.988050
PR17 -20159.576408   3471.563168 -15210.757960    417.293832
PR18 -22110.796956  12759.606038    788.260050     73.712484
PR19 -13335.336037  14949.948872  15790.637629   -140.401247
PR20   6018.714977   8506.155497  23286.414625    -47.594757
PR21  20712.115440  -4256.116679  14280.181363   -202.865426
PR22  21798.932487 -13003.705719  -1911.146053   -108.565748
PR24  -7102.686900  -8396.002050 -23000.202389     39.457683
EOF
